STARLINK-30960          
1 58456U 23183V   26085.69660903  .01274244  83081-3  24238-2 0  9993
2 58456  42.9853 202.9762 0038806 359.6861   0.3987 15.98476291130533
STARLINK-30958          
1 58457U 23183W   26085.65995594 -.00000365  00000+0 -37419-5 0  9993
2 58457  43.0042 305.4433 0001053 281.9952  78.0782 15.27573409129334
STARLINK-30962          
1 58458U 23183X   26085.64021407 -.00005115  00000+0 -18120-3 0  9990
2 58458  43.0017 305.2885 0001045 288.8450  71.2288 15.26731108129333
STARLINK-30977          
1 58459U 23183Y   26085.84103372  .00001540  00000+0  66142-4 0  9999
2 58459  43.0026 305.0645 0002815 341.3403  18.7345 15.27242191129357
STARLINK-30947          
1 58473U 23186A   26085.41394552  .00007881  00000+0  30306-3 0  9999
2 58473  43.0062 332.6407 0001045 283.4122  76.6613 15.26752954128412
STARLINK-30941          
1 58475U 23186C   26085.68626514 -.00005755  00000+0 -20508-3 0  9999
2 58475  43.0039 331.2401 0001864 267.0796  92.9842 15.26729947128456
STARLINK-30980          
1 58476U 23186D   26085.69020463  .00002880  00000+0  11409-3 0  9996
2 58476  43.0017 331.2657 0001577 250.5375 109.5306 15.27593646128453
STARLINK-30965          
1 58477U 23186E   26085.33418883  .00099973  00000+0  36286-2 0  9993
2 58477  43.0000 318.1830 0001859 271.0474  89.0164 15.27260472128579
STARLINK-30990          
1 58478U 23186F   26085.73831460  .00008723  00000+0  33436-3 0  9996
2 58478  43.0065 330.7697 0001790 267.5649  92.4997 15.26751836128503
STARLINK-30984          
1 58480U 23186H   26085.71111457 -.00003462  00000+0 -11630-3 0  9993
2 58480  43.0045 327.1546 0001219 283.1328  76.9388 15.27590270128506
STARLINK-30956          
1 58481U 23186J   26085.68584266 -.00000249  00000+0  40749-6 0  9997
2 58481  42.9999 305.1040 0001619 282.1112  77.9558 15.26741765128755
STARLINK-30997          
1 58482U 23186K   26085.67142109  .00023488  00000+0  85983-3 0  9998
2 58482  43.0003 327.6880 0001113 205.2534 154.8263 15.27600246128496
STARLINK-30994          
1 58483U 23186L   26085.68671777  .00001314  00000+0  57249-4 0  9997
2 58483  42.9986 164.1798 0000670 258.7392 101.3385 15.27588442130408
STARLINK-30991          
1 58484U 23186M   26085.70984007 -.00003885  00000+0 -13178-3 0  9993
2 58484  43.0031 327.1422 0000806 278.1147  81.9613 15.27570208128485
STARLINK-30979          
1 58485U 23186N   26085.36119289 -.00001484  00000+0 -44433-4 0  9990
2 58485  43.0004 329.6827 0001166 283.7252  76.3470 15.27580976128438
STARLINK-31005          
1 58486U 23186P   26085.68170324  .00014082  00000+0  52016-3 0  9994
2 58486  43.0001 327.7924 0000806 283.9724  76.1038 15.27587939128488
