[{"OBJECT_NAME":"STARLINK-30960","OBJECT_ID":"2023-183V","EPOCH":"2026-03-26T16:43:07.020192","MEAN_MOTION":15.98476291,"ECCENTRICITY":0.0038806,"INCLINATION":42.9853,"RA_OF_ASC_NODE":202.9762,"ARG_OF_PERICENTER":359.6861,"MEAN_ANOMALY":0.3987,"EPHEMERIS_TYPE":0,"CLASSIFICATION_TYPE":"U","NORAD_CAT_ID":58456,"ELEMENT_SET_NO":999,"REV_AT_EPOCH":13053,"BSTAR":0.0024238,"MEAN_MOTION_DOT":0.01274244,"MEAN_MOTION_DDOT":0.00083081},{"OBJECT_NAME":"STARLINK-30958","OBJECT_ID":"2023-183W","EPOCH":"2026-03-26T15:50:20.193216","MEAN_MOTION":15.27573409,"ECCENTRICITY":0.0001053,"INCLINATION":43.0042,"RA_OF_ASC_NODE":305.4433,"ARG_OF_PERICENTER":281.9952,"MEAN_ANOMALY":78.0782,"EPHEMERIS_TYPE":0,"CLASSIFICATION_TYPE":"U","NORAD_CAT_ID":58457,"ELEMENT_SET_NO":999,"REV_AT_EPOCH":12933,"BSTAR":-3.7419e-6,"MEAN_MOTION_DOT":-3.65e-6,"MEAN_MOTION_DDOT":0},{"OBJECT_NAME":"STARLINK-30962","OBJECT_ID":"2023-183X","EPOCH":"2026-03-26T15:21:54.495648","MEAN_MOTION":15.26731108,"ECCENTRICITY":0.0001045,"INCLINATION":43.0017,"RA_OF_ASC_NODE":305.2885,"ARG_OF_PERICENTER":288.845,"MEAN_ANOMALY":71.2288,"EPHEMERIS_TYPE":0,"CLASSIFICATION_TYPE":"U","NORAD_CAT_ID":58458,"ELEMENT_SET_NO":999,"REV_AT_EPOCH":12933,"BSTAR":-0.0001812,"MEAN_MOTION_DOT":-5.115e-5,"MEAN_MOTION_DDOT":0},{"OBJECT_NAME":"STARLINK-30977","OBJECT_ID":"2023-183Y","EPOCH":"2026-03-26T20:11:05.313408","MEAN_MOTION":15.27242191,"ECCENTRICITY":0.0002815,"INCLINATION":43.0026,"RA_OF_ASC_NODE":305.0645,"ARG_OF_PERICENTER":341.3403,"MEAN_ANOMALY":18.7345,"EPHEMERIS_TYPE":0,"CLASSIFICATION_TYPE":"U","NORAD_CAT_ID":58459,"ELEMENT_SET_NO":999,"REV_AT_EPOCH":12935,"BSTAR":6.6142e-5,"MEAN_MOTION_DOT":1.54e-5,"MEAN_MOTION_DDOT":0},{"OBJECT_NAME":"STARLINK-30947","OBJECT_ID":"2023-186A","EPOCH":"2026-03-26T09:56:04.892928","MEAN_MOTION":15.26752954,"ECCENTRICITY":0.0001045,"INCLINATION":43.0062,"RA_OF_ASC_NODE":332.6407,"ARG_OF_PERICENTER":283.4122,"MEAN_ANOMALY":76.6613,"EPHEMERIS_TYPE":0,"CLASSIFICATION_TYPE":"U","NORAD_CAT_ID":58473,"ELEMENT_SET_NO":999,"REV_AT_EPOCH":12841,"BSTAR":0.00030306,"MEAN_MOTION_DOT":7.881e-5,"MEAN_MOTION_DDOT":0},{"OBJECT_NAME":"STARLINK-30941","OBJECT_ID":"2023-186C","EPOCH":"2026-03-26T16:28:13.308096","MEAN_MOTION":15.26729947,"ECCENTRICITY":0.0001864,"INCLINATION":43.0039,"RA_OF_ASC_NODE":331.2401,"ARG_OF_PERICENTER":267.0796,"MEAN_ANOMALY":92.9842,"EPHEMERIS_TYPE":0,"CLASSIFICATION_TYPE":"U","NORAD_CAT_ID":58475,"ELEMENT_SET_NO":999,"REV_AT_EPOCH":12845,"BSTAR":-0.00020508,"MEAN_MOTION_DOT":-5.755e-5,"MEAN_MOTION_DDOT":0},{"OBJECT_NAME":"STARLINK-30980","OBJECT_ID":"2023-186D","EPOCH":"2026-03-26T16:33:53.680032","MEAN_MOTION":15.27593646,"ECCENTRICITY":0.0001577,"INCLINATION":43.0017,"RA_OF_ASC_NODE":331.2657,"ARG_OF_PERICENTER":250.5375,"MEAN_ANOMALY":109.5306,"EPHEMERIS_TYPE":0,"CLASSIFICATION_TYPE":"U","NORAD_CAT_ID":58476,"ELEMENT_SET_NO":999,"REV_AT_EPOCH":12845,"BSTAR":0.00011409,"MEAN_MOTION_DOT":2.88e-5,"MEAN_MOTION_DDOT":0},{"OBJECT_NAME":"STARLINK-30965","OBJECT_ID":"2023-186E","EPOCH":"2026-03-26T08:01:13.914912","MEAN_MOTION":15.27260472,"ECCENTRICITY":0.0001859,"INCLINATION":43,"RA_OF_ASC_NODE":318.183,"ARG_OF_PERICENTER":271.0474,"MEAN_ANOMALY":89.0164,"EPHEMERIS_TYPE":0,"CLASSIFICATION_TYPE":"U","NORAD_CAT_ID":58477,"ELEMENT_SET_NO":999,"REV_AT_EPOCH":12857,"BSTAR":0.0036286,"MEAN_MOTION_DOT":0.00099973,"MEAN_MOTION_DDOT":0},{"OBJECT_NAME":"STARLINK-30990","OBJECT_ID":"2023-186F","EPOCH":"2026-03-26T17:43:10.381440","MEAN_MOTION":15.26751836,"ECCENTRICITY":0.000179,"INCLINATION":43.0065,"RA_OF_ASC_NODE":330.7697,"ARG_OF_PERICENTER":267.5649,"MEAN_ANOMALY":92.4997,"EPHEMERIS_TYPE":0,"CLASSIFICATION_TYPE":"U","NORAD_CAT_ID":58478,"ELEMENT_SET_NO":999,"REV_AT_EPOCH":12850,"BSTAR":0.00033436,"MEAN_MOTION_DOT":8.723e-5,"MEAN_MOTION_DDOT":0},{"OBJECT_NAME":"STARLINK-30984","OBJECT_ID":"2023-186H","EPOCH":"2026-03-26T17:04:00.298848","MEAN_MOTION":15.2759027,"ECCENTRICITY":0.0001219,"INCLINATION":43.0045,"RA_OF_ASC_NODE":327.1546,"ARG_OF_PERICENTER":283.1328,"MEAN_ANOMALY":76.9388,"EPHEMERIS_TYPE":0,"CLASSIFICATION_TYPE":"U","NORAD_CAT_ID":58480,"ELEMENT_SET_NO":999,"REV_AT_EPOCH":12850,"BSTAR":-0.0001163,"MEAN_MOTION_DOT":-3.462e-5,"MEAN_MOTION_DDOT":0},{"OBJECT_NAME":"STARLINK-30956","OBJECT_ID":"2023-186J","EPOCH":"2026-03-26T16:27:36.805824","MEAN_MOTION":15.26741765,"ECCENTRICITY":0.0001619,"INCLINATION":42.9999,"RA_OF_ASC_NODE":305.104,"ARG_OF_PERICENTER":282.1112,"MEAN_ANOMALY":77.9558,"EPHEMERIS_TYPE":0,"CLASSIFICATION_TYPE":"U","NORAD_CAT_ID":58481,"ELEMENT_SET_NO":999,"REV_AT_EPOCH":12875,"BSTAR":4.0749e-7,"MEAN_MOTION_DOT":-2.49e-6,"MEAN_MOTION_DDOT":0},{"OBJECT_NAME":"STARLINK-30997","OBJECT_ID":"2023-186K","EPOCH":"2026-03-26T16:06:50.782176","MEAN_MOTION":15.27600246,"ECCENTRICITY":0.0001113,"INCLINATION":43.0003,"RA_OF_ASC_NODE":327.688,"ARG_OF_PERICENTER":205.2534,"MEAN_ANOMALY":154.8263,"EPHEMERIS_TYPE":0,"CLASSIFICATION_TYPE":"U","NORAD_CAT_ID":58482,"ELEMENT_SET_NO":999,"REV_AT_EPOCH":12849,"BSTAR":0.00085983,"MEAN_MOTION_DOT":0.00023488,"MEAN_MOTION_DDOT":0},{"OBJECT_NAME":"STARLINK-30994","OBJECT_ID":"2023-186L","EPOCH":"2026-03-26T16:28:52.415328","MEAN_MOTION":15.27588442,"ECCENTRICITY":6.7e-5,"INCLINATION":42.9986,"RA_OF_ASC_NODE":164.1798,"ARG_OF_PERICENTER":258.7392,"MEAN_ANOMALY":101.3385,"EPHEMERIS_TYPE":0,"CLASSIFICATION_TYPE":"U","NORAD_CAT_ID":58483,"ELEMENT_SET_NO":999,"REV_AT_EPOCH":13040,"BSTAR":5.7249e-5,"MEAN_MOTION_DOT":1.314e-5,"MEAN_MOTION_DDOT":0},{"OBJECT_NAME":"STARLINK-30991","OBJECT_ID":"2023-186M","EPOCH":"2026-03-26T17:02:10.182048","MEAN_MOTION":15.27570208,"ECCENTRICITY":8.06e-5,"INCLINATION":43.0031,"RA_OF_ASC_NODE":327.1422,"ARG_OF_PERICENTER":278.1147,"MEAN_ANOMALY":81.9613,"EPHEMERIS_TYPE":0,"CLASSIFICATION_TYPE":"U","NORAD_CAT_ID":58484,"ELEMENT_SET_NO":999,"REV_AT_EPOCH":12848,"BSTAR":-0.00013178,"MEAN_MOTION_DOT":-3.885e-5,"MEAN_MOTION_DDOT":0},{"OBJECT_NAME":"STARLINK-30979","OBJECT_ID":"2023-186N","EPOCH":"2026-03-26T08:40:07.065696","MEAN_MOTION":15.27580976,"ECCENTRICITY":0.0001166,"INCLINATION":43.0004,"RA_OF_ASC_NODE":329.6827,"ARG_OF_PERICENTER":283.7252,"MEAN_ANOMALY":76.347,"EPHEMERIS_TYPE":0,"CLASSIFICATION_TYPE":"U","NORAD_CAT_ID":58485,"ELEMENT_SET_NO":999,"REV_AT_EPOCH":12843,"BSTAR":-4.4433e-5,"MEAN_MOTION_DOT":-1.484e-5,"MEAN_MOTION_DDOT":0},{"OBJECT_NAME":"STARLINK-31005","OBJECT_ID":"2023-186P","EPOCH":"2026-03-26T16:21:39.159936","MEAN_MOTION":15.27587939,"ECCENTRICITY":8.06e-5,"INCLINATION":43.0001,"RA_OF_ASC_NODE":327.7924,"ARG_OF_PERICENTER":283.9724,"MEAN_ANOMALY":76.1038,"EPHEMERIS_TYPE":0,"CLASSIFICATION_TYPE":"U","NORAD_CAT_ID":58486,"ELEMENT_SET_NO":999,"REV_AT_EPOCH":12848,"BSTAR":0.00052016,"MEAN_MOTION_DOT":0.00014082,"MEAN_MOTION_DDOT":0}]
